IRIDIUM 36 [-]          
1 24967U 97056C   23257.60441271  .00000711  00000+0  23633-3 0  9997
2 24967  86.3910  82.3571 0001859  86.9884 273.1526 14.36390602360086
IRIDIUM 39 [-]          
1 25042U 97069D   23257.87074425  .00000720  00000+0  19087-3 0  9996
2 25042  86.3911 125.7917 0016544 288.7329  71.2078 14.47346805356140
IRIDIUM 38 [-]          
1 25043U 97069E   23258.11785774  .00000634  00000+0  20779-3 0  9995
2 25043  86.3992 142.6513 0004115  71.0335 289.1308 14.36872535354125
IRIDIUM 42 [-]          
1 25077U 97077A   23257.77506931  .00000465  00000+0  15604-3 0  9991
2 25077  86.4010 148.1783 0002728  77.9956 282.1546 14.35189028349168
IRIDIUM 45 [-]          
1 25104U 97082A   23257.76787084  .00016824  00000+0  10993-2 0  9998
2 25104  86.3831 351.1583 0183296 158.2812 202.6323 14.94838659355452
IRIDIUM 24 [-]          
1 25105U 97082B   23257.78266786  .00000729  00000+0  22198-3 0  9990
2 25105  86.3975 351.8885 0012823  43.3937 316.8269 14.40721719351073
IRIDIUM 51 [-]          
1 25262U 98018A   23257.80920265  .00016066  00000+0  90092-3 0  9995
2 25262  86.3988   1.7450 0169955 114.3403 247.5680 15.01684388349810
